start=new Date('2022-07-26T00:00:00.000Z').valueOf();
sats=[{"TLE_LINE1":"1 46575U 20070AV  22206.56793926  .00000824  00000-0  74246-4 0  9996","TIME_SYSTEM":"UTC","OBJECT_NAME":"STARLINK-1675","ARG_OF_PERICENTER":"68.3955","MEAN_MOTION_DDOT":"0.0000000000000","ELEMENT_SET_NO":"999","APOAPSIS":"548.262","CLASSIFICATION_TYPE":"U","FILE":"3521435","SEMIMAJOR_AXIS":"6925.361","EPHEMERIS_TYPE":"0","DECAY_DATE":null,"MEAN_ANOMALY":"291.7193","TLE_LINE2":"2 46575  53.0561 316.3542 0001496  68.3955 291.7193 15.06395999100637","OBJECT_TYPE":"PAYLOAD","MEAN_MOTION_DOT":"0.00000824","RA_OF_ASC_NODE":"316.3542","MEAN_ELEMENT_THEORY":"SGP4","SITE":"AFETR","BSTAR":"0.00007424600000","CENTER_NAME":"EARTH","LAUNCH_DATE":"2020-10-06","PERIOD":"95.592","COUNTRY_CODE":"US","OBJECT_ID":"2020-070AV","MEAN_MOTION":"15.06395999","REV_AT_EPOCH":"10063","EPOCH":"2022-07-25T13:37:49.952064","GP_ID":"208828508","ECCENTRICITY":"0.00014960","RCS_SIZE":"LARGE","NORAD_CAT_ID":"46575","REF_FRAME":"TEME","INCLINATION":"53.0561","PERIAPSIS":"546.190"},{"PERIOD":"95.593","COUNTRY_CODE":"US","SITE":"AFETR","BSTAR":"-0.00001718100000","LAUNCH_DATE":"2020-10-06","CENTER_NAME":"EARTH","NORAD_CAT_ID":"46576","REF_FRAME":"TEME","RCS_SIZE":"LARGE","ECCENTRICITY":"0.00014220","INCLINATION":"53.0564","PERIAPSIS":"546.268","EPOCH":"2022-07-25T18:29:05.351712","OBJECT_ID":"2020-070AW","REV_AT_EPOCH":"10032","MEAN_MOTION":"15.06387284","GP_ID":"208859856","MEAN_MOTION_DDOT":"0.0000000000000","TLE_LINE1":"1 46576U 20070AW  22206.77020083 -.00000537  00000-0 -17181-4 0  9995","OBJECT_NAME":"STARLINK-1677","ARG_OF_PERICENTER":"70.8507","TIME_SYSTEM":"UTC","MEAN_ANOMALY":"289.2636","MEAN_MOTION_DOT":"-0.00000537","RA_OF_ASC_NODE":"340.4303","MEAN_ELEMENT_THEORY":"SGP4","TLE_LINE2":"2 46576  53.0564 340.4303 0001422  70.8507 289.2636 15.06387284100322","OBJECT_TYPE":"PAYLOAD","FILE":"3521711","APOAPSIS":"548.237","ELEMENT_SET_NO":"999","CLASSIFICATION_TYPE":"U","EPHEMERIS_TYPE":"0","SEMIMAJOR_AXIS":"6925.388","DECAY_DATE":null},{"GP_ID":"208860608","REV_AT_EPOCH":"10032","MEAN_MOTION":"15.06389137","OBJECT_ID":"2020-070AX","EPOCH":"2022-07-25T19:11:33.524448","INCLINATION":"53.0546","PERIAPSIS":"546.180","ECCENTRICITY":"0.00015400","RCS_SIZE":"LARGE","REF_FRAME":"TEME","NORAD_CAT_ID":"46577","CENTER_NAME":"EARTH","LAUNCH_DATE":"2020-10-06","BSTAR":"-0.00016933000000","SITE":"AFETR","COUNTRY_CODE":"US","PERIOD":"95.593","DECAY_DATE":null,"SEMIMAJOR_AXIS":"6925.382","EPHEMERIS_TYPE":"0","APOAPSIS":"548.313","ELEMENT_SET_NO":"999","CLASSIFICATION_TYPE":"U","FILE":"3521711","OBJECT_TYPE":"PAYLOAD","TLE_LINE2":"2 46577  53.0546 340.3033 0001540  74.9130 285.2030 15.06389137100323","MEAN_ELEMENT_THEORY":"SGP4","RA_OF_ASC_NODE":"340.3033","MEAN_MOTION_DOT":"-0.00002802","MEAN_ANOMALY":"285.2030","TIME_SYSTEM":"UTC","ARG_OF_PERICENTER":"74.9130","OBJECT_NAME":"STARLINK-1682","TLE_LINE1":"1 46577U 20070AX  22206.79969357 -.00002802  00000-0 -16933-3 0  9994","MEAN_MOTION_DDOT":"0.0000000000000"},{"MEAN_MOTION_DDOT":"0.0000000000000","TLE_LINE1":"1 46578U 20070AY  22206.64811260  .00001339  00000-0  10878-3 0  9992","TIME_SYSTEM":"UTC","ARG_OF_PERICENTER":"76.0795","OBJECT_NAME":"STARLINK-1683","MEAN_ANOMALY":"284.0351","TLE_LINE2":"2 46578  53.0555 326.0396 0001409  76.0795 284.0351 15.06385862100516","OBJECT_TYPE":"PAYLOAD","MEAN_MOTION_DOT":"0.00001339","MEAN_ELEMENT_THEORY":"SGP4","RA_OF_ASC_NODE":"326.0396","ELEMENT_SET_NO":"999","APOAPSIS":"548.233","CLASSIFICATION_TYPE":"U","FILE":"3521711","SEMIMAJOR_AXIS":"6925.392","EPHEMERIS_TYPE":"0","DECAY_DATE":null,"PERIOD":"95.593","COUNTRY_CODE":"US","SITE":"AFETR","BSTAR":"0.00010878000000","CENTER_NAME":"EARTH","LAUNCH_DATE":"2020-10-06","ECCENTRICITY":"0.00014090","RCS_SIZE":"LARGE","NORAD_CAT_ID":"46578","REF_FRAME":"TEME","INCLINATION":"53.0555","PERIAPSIS":"546.281","OBJECT_ID":"2020-070AY","MEAN_MOTION":"15.06385862","REV_AT_EPOCH":"10051","EPOCH":"2022-07-25T15:33:16.928640","GP_ID":"208860359"},{"MEAN_ELEMENT_THEORY":"SGP4","RA_OF_ASC_NODE":"340.3702","MEAN_MOTION_DOT":"0.00002596","TLE_LINE2":"2 46579  53.0557 340.3702 0001412  80.6343 279.4805 15.06399232100320","OBJECT_TYPE":"PAYLOAD","MEAN_ANOMALY":"279.4805","DECAY_DATE":null,"SEMIMAJOR_AXIS":"6925.351","EPHEMERIS_TYPE":"0","FILE":"3521711","CLASSIFICATION_TYPE":"U","APOAPSIS":"548.194","ELEMENT_SET_NO":"999","MEAN_MOTION_DDOT":"0.0000000000000","OBJECT_NAME":"STARLINK-1705","ARG_OF_PERICENTER":"80.6343","TIME_SYSTEM":"UTC","TLE_LINE1":"1 46579U 20070AZ  22206.78494006  .00002596  00000-0  19308-3 0  9996","PERIAPSIS":"546.238","INCLINATION":"53.0557","REF_FRAME":"TEME","NORAD_CAT_ID":"46579","ECCENTRICITY":"0.00014120","RCS_SIZE":"LARGE","GP_ID":"208859107","EPOCH":"2022-07-25T18:50:18.821184","MEAN_MOTION":"15.06399232","REV_AT_EPOCH":"10032","OBJECT_ID":"2020-070AZ","COUNTRY_CODE":"US","PERIOD":"95.592","LAUNCH_DATE":"2020-10-06","CENTER_NAME":"EARTH","SITE":"AFETR","BSTAR":"0.00019308000000"},{"NORAD_CAT_ID":"46580","REF_FRAME":"TEME","RCS_SIZE":"LARGE","ECCENTRICITY":"0.00013940","INCLINATION":"53.0568","PERIAPSIS":"546.286","EPOCH":"2022-07-25T18:18:29.086560","OBJECT_ID":"2020-070BA","REV_AT_EPOCH":"10032","MEAN_MOTION":"15.06387802","GP_ID":"208859357","PERIOD":"95.593","COUNTRY_CODE":"US","SITE":"AFETR","BSTAR":"-0.00001077100000","LAUNCH_DATE":"2020-10-06","CENTER_NAME":"EARTH","MEAN_ANOMALY":"285.4737","MEAN_MOTION_DOT":"-0.00000442","RA_OF_ASC_NODE":"340.4656","MEAN_ELEMENT_THEORY":"SGP4","TLE_LINE2":"2 46580  53.0568 340.4656 0001394  74.6406 285.4737 15.06387802100326","OBJECT_TYPE":"PAYLOAD","FILE":"3521711","APOAPSIS":"548.216","ELEMENT_SET_NO":"999","CLASSIFICATION_TYPE":"U","EPHEMERIS_TYPE":"0","SEMIMAJOR_AXIS":"6925.386","DECAY_DATE":null,"MEAN_MOTION_DDOT":"0.0000000000000","TLE_LINE1":"1 46580U 20070BA  22206.76283665 -.00000442  00000-0 -10771-4 0  9999","ARG_OF_PERICENTER":"74.6406","OBJECT_NAME":"STARLINK-1708","TIME_SYSTEM":"UTC"},{"GP_ID":"208860109","MEAN_MOTION":"15.06372224","REV_AT_EPOCH":"10039","OBJECT_ID":"2020-070BB","EPOCH":"2022-07-25T19:04:16.549536","PERIAPSIS":"546.009","INCLINATION":"53.0553","RCS_SIZE":"LARGE","ECCENTRICITY":"0.00018620","REF_FRAME":"TEME","NORAD_CAT_ID":"46581","CENTER_NAME":"EARTH","LAUNCH_DATE":"2020-10-06","SITE":"AFETR","BSTAR":"0.00007962500000","COUNTRY_CODE":"US","PERIOD":"95.594","DECAY_DATE":null,"SEMIMAJOR_AXIS":"6925.434","EPHEMERIS_TYPE":"0","CLASSIFICATION_TYPE":"U","APOAPSIS":"548.588","ELEMENT_SET_NO":"999","FILE":"3521711","TLE_LINE2":"2 46581  53.0553 335.3401 0001862  91.1910 268.9292 15.06372224100397","OBJECT_TYPE":"PAYLOAD","MEAN_ELEMENT_THEORY":"SGP4","RA_OF_ASC_NODE":"335.3401","MEAN_MOTION_DOT":"0.00000904","MEAN_ANOMALY":"268.9292","TIME_SYSTEM":"UTC","OBJECT_NAME":"STARLINK-1712","ARG_OF_PERICENTER":"91.1910","TLE_LINE1":"1 46581U 20070BB  22206.79463599  .00000904  00000-0  79625-4 0  9993","MEAN_MOTION_DDOT":"0.0000000000000"},{"MEAN_MOTION_DDOT":"0.0000000000000","TIME_SYSTEM":"UTC","OBJECT_NAME":"STARLINK-1728","ARG_OF_PERICENTER":"84.9346","TLE_LINE1":"1 46582U 20070BC  22206.77987607  .00001569  00000-0  12424-3 0  9994","OBJECT_TYPE":"PAYLOAD","TLE_LINE2":"2 46582  53.0551 335.4036 0001316  84.9346 275.1793 15.06395721100391","MEAN_MOTION_DOT":"0.00001569","MEAN_ELEMENT_THEORY":"SGP4","RA_OF_ASC_NODE":"335.4036","MEAN_ANOMALY":"275.1793","SEMIMAJOR_AXIS":"6925.362","EPHEMERIS_TYPE":"0","DECAY_DATE":null,"APOAPSIS":"548.138","ELEMENT_SET_NO":"999","CLASSIFICATION_TYPE":"U","FILE":"3521711","COUNTRY_CODE":"US","PERIOD":"95.592","CENTER_NAME":"EARTH","LAUNCH_DATE":"2020-10-06","BSTAR":"0.00012424000000","SITE":"AFETR","INCLINATION":"53.0551","PERIAPSIS":"546.315","RCS_SIZE":"LARGE","ECCENTRICITY":"0.00013160","NORAD_CAT_ID":"46582","REF_FRAME":"TEME","GP_ID":"208860859","OBJECT_ID":"2020-070BC","REV_AT_EPOCH":"10039","MEAN_MOTION":"15.06395721","EPOCH":"2022-07-25T18:43:01.292448"},{"EPHEMERIS_TYPE":"0","SEMIMAJOR_AXIS":"6925.367","DECAY_DATE":null,"FILE":"3521711","CLASSIFICATION_TYPE":"U","APOAPSIS":"548.269","ELEMENT_SET_NO":"999","MEAN_MOTION_DOT":"-0.00000262","MEAN_ELEMENT_THEORY":"SGP4","RA_OF_ASC_NODE":"355.1745","OBJECT_TYPE":"PAYLOAD","TLE_LINE2":"2 46583  53.0572 355.1745 0001497  89.8996 270.2164 15.06393995100115","MEAN_ANOMALY":"270.2164","OBJECT_NAME":"STARLINK-1729","ARG_OF_PERICENTER":"89.8996","TIME_SYSTEM":"UTC","TLE_LINE1":"1 46583U 20070BD  22206.82963283 -.00000262  00000-0  13385-5 0  9994","MEAN_MOTION_DDOT":"0.0000000000000","GP_ID":"208859607","EPOCH":"2022-07-25T19:54:40.276512","OBJECT_ID":"2020-070BD","REV_AT_EPOCH":"10011","MEAN_MOTION":"15.06393995","PERIAPSIS":"546.195","INCLINATION":"53.0572","NORAD_CAT_ID":"46583","REF_FRAME":"TEME","RCS_SIZE":"LARGE","ECCENTRICITY":"0.00014970","LAUNCH_DATE":"2020-10-06","CENTER_NAME":"EARTH","SITE":"AFETR","BSTAR":"0.00000133850000","COUNTRY_CODE":"US","PERIOD":"95.593"},{"PERIOD":"95.593","COUNTRY_CODE":"US","SITE":"AFETR","BSTAR":"-0.00000114560000","LAUNCH_DATE":"2020-10-06","CENTER_NAME":"EARTH","NORAD_CAT_ID":"46584","REF_FRAME":"TEME","ECCENTRICITY":"0.00015470","RCS_SIZE":"LARGE","INCLINATION":"53.0567","PERIAPSIS":"546.194","EPOCH":"2022-07-25T18:48:20.207808","OBJECT_ID":"2020-070BE","REV_AT_EPOCH":"10039","MEAN_MOTION":"15.06383174","GP_ID":"208859857","MEAN_MOTION_DDOT":"0.0000000000000","TLE_LINE1":"1 46584U 20070BE  22206.78356722 -.00000299  00000-0 -11456-5 0  9992","ARG_OF_PERICENTER":"81.6044","OBJECT_NAME":"STARLINK-1732","TIME_SYSTEM":"UTC","MEAN_ANOMALY":"278.5120","MEAN_MOTION_DOT":"-0.00000299","RA_OF_ASC_NODE":"335.3830","MEAN_ELEMENT_THEORY":"SGP4","TLE_LINE2":"2 46584  53.0567 335.3830 0001547  81.6044 278.5120 15.06383174100396","OBJECT_TYPE":"PAYLOAD","FILE":"3521711","APOAPSIS":"548.336","ELEMENT_SET_NO":"999","CLASSIFICATION_TYPE":"U","EPHEMERIS_TYPE":"0","SEMIMAJOR_AXIS":"6925.400","DECAY_DATE":null}];
